WORLDVIEW-1 (WV-1)      
1 32060U 07041A   26195.20490814  .00003442  00000+0  14270-3 0  9993
2 32060  97.3904 314.5689 0001437 210.7351 149.3802 15.24552092 46995
WORLDVIEW-2 (WV-2)      
1 35946U 09055A   26195.16311988  .00000038  00000+0  26938-4 0  9998
2 35946  98.4757 268.2454 0005272 132.3607 227.8027 14.37906750879529
WORLDVIEW-3 (WV-3)      
1 40115U 14048A   26195.18648597  .00000425  00000+0  55953-4 0  9990
2 40115  97.8557 269.6458 0001222 157.8708 202.2560 14.85063297645914
